0 COSMOS 970 DEB
1 10575U 77121S   13281.55524547  .00000112  00000-0  24104-3 0  2832
2 10575 065.8785 287.1769 0126251 230.5088 214.9544 13.59935722775040
0 COSMOS 970 DEB
1 10575U 77121S   13287.14174957  .00000064  00000-0  17965-3 0  2854
2 10575 065.8787 273.7441 0125954 227.9165 205.0678 13.59938396775808
0 COSMOS 970 DEB
1 10575U 77121S   13289.44197059  .00000056  00000-0  16966-3 0  2869
2 10575 065.8790 268.2132 0125737 226.8657 306.3654 13.59938939776118
0 COSMOS 970 DEB
1 10575U 77121S   13292.14689237  .00000086  00000-0  20775-3 0  2871
2 10575 065.8793 261.7095 0125523 225.6025 229.0101 13.59939235776484
0 COSMOS 970 DEB
1 10575U 77121S   13294.42455045  .00000093  00000-0  21639-3 0  2881
2 10575 065.8793 256.2334 0125327 224.5409 219.8754 13.59940142776799
